[Satellite]
VERSION=1.1
NAME=IRIDIUM 19 [+]
NICKNAME=IRIDIUM 19 [+]
TLE1=1 24965U 97056A   17185.91339914  .00000101  00000-0  29123-4 0  9997
TLE2=2 24965  86.3967 311.2837 0002291  94.3332 265.8126 14.34216359 35095
